{
  "type": "FeatureCollection",
  "features": [
    {
      "type": "Feature",
      "properties": {
        "norad_id": 30380,
        "name": "FENGYUN 1C DEB",
        "group": "fengyun-1c-debris",
        "lat": 41.240583608104835,
        "lon": -122.163469447796,
        "alt_km": 615.7500153799019,
        "timestamp": "2025-12-27T10:28:59.070555+00:00",
        "meta_object_name": "FENGYUN 1C DEB",
        "meta_object_id": "1999-025ACT",
        "meta_epoch": "2025-12-26T02:23:34.239840",
        "meta_mean_motion": 14.50703403,
        "meta_eccentricity": 0.01780989,
        "meta_inclination": 98.9127,
        "meta_ra_of_asc_node": 48.5131,
        "meta_arg_of_pericenter": 177.1536,
        "meta_mean_anomaly": 183.0715,
        "meta_ephemeris_type": 0,
        "meta_classification_type": "U",
        "meta_norad_cat_id": 30380,
        "meta_element_set_no": 999,
        "meta_rev_at_epoch": 99759,
        "meta_bstar": 0.00027594151,
        "meta_mean_motion_dot": 1.271e-05,
        "meta_mean_motion_ddot": 0,
        "tle_line1": "1 30380U 99025ACT 25360.09970185  .00001271  00000+0  27594-3 0  9994",
        "tle_line2": "2 30380  98.9127  48.5131 0178098 177.1536 183.0715 14.50703403997598"
      },
      "geometry": {
        "type": "Point",
        "coordinates": [
          -122.163469447796,
          41.240583608104835
        ]
      }
    },
    {
      "type": "Feature",
      "properties": {
        "norad_id": 30381,
        "name": "FENGYUN 1C DEB",
        "group": "fengyun-1c-debris",
        "lat": -81.04840504684188,
        "lon": 116.2151807216879,
        "alt_km": 877.4651051634055,
        "timestamp": "2025-12-27T10:28:59.070565+00:00",
        "meta_object_name": "FENGYUN 1C DEB",
        "meta_object_id": "1999-025ACU",
        "meta_epoch": "2025-12-24T13:13:19.655616",
        "meta_mean_motion": 14.12982436,
        "meta_eccentricity": 0.00538965,
        "meta_inclination": 98.8127,
        "meta_ra_of_asc_node": 33.3585,
        "meta_arg_of_pericenter": 42.5981,
        "meta_mean_anomaly": 317.9353,
        "meta_ephemeris_type": 0,
        "meta_classification_type": "U",
        "meta_norad_cat_id": 30381,
        "meta_element_set_no": 999,
        "meta_rev_at_epoch": 92333,
        "meta_bstar": 0.00093102658,
        "meta_mean_motion_dot": 1.716e-05,
        "meta_mean_motion_ddot": 0,
        "tle_line1": "1 30381U 99025ACU 25358.55092194  .00001716  00000+0  93103-3 0  9991",
        "tle_line2": "2 30381  98.8127  33.3585 0053896  42.5981 317.9353 14.12982436923330"
      },
      "geometry": {
        "type": "Point",
        "coordinates": [
          116.2151807216879,
          -81.04840504684188
        ]
      }
    },
    {
      "type": "Feature",
      "properties": {
        "norad_id": 30382,
        "name": "FENGYUN 1C DEB",
        "group": "fengyun-1c-debris",
        "lat": -8.002652443960374,
        "lon": -141.84383028264412,
        "alt_km": 874.9917998112633,
        "timestamp": "2025-12-27T10:28:59.070575+00:00",
        "meta_object_name": "FENGYUN 1C DEB",
        "meta_object_id": "1999-025ACV",
        "meta_epoch": "2025-12-27T01:26:40.809120",
        "meta_mean_motion": 14.25353135,
        "meta_eccentricity": 0.015427,
        "meta_inclination": 98.4982,
        "meta_ra_of_asc_node": 38.9956,
        "meta_arg_of_pericenter": 314.9149,
        "meta_mean_anomaly": 103.1643,
        "meta_ephemeris_type": 0,
        "meta_classification_type": "U",
        "meta_norad_cat_id": 30382,
        "meta_element_set_no": 999,
        "meta_rev_at_epoch": 97739,
        "meta_bstar": 0.0010492,
        "meta_mean_motion_dot": 2.756e-05,
        "meta_mean_motion_ddot": 0,
        "tle_line1": "1 30382U 99025ACV 25361.06019455  .00002756  00000+0  10492-2 0  9995",
        "tle_line2": "2 30382  98.4982  38.9956 0154270 314.9149 103.1643 14.25353135977393"
      },
      "geometry": {
        "type": "Point",
        "coordinates": [
          -141.84383028264412,
          -8.002652443960374
        ]
      }
    },
    {
      "type": "Feature",
      "properties": {
        "norad_id": 30385,
        "name": "FENGYUN 1C DEB",
        "group": "fengyun-1c-debris",
        "lat": 43.28763955701174,
        "lon": -148.34161636373526,
        "alt_km": 788.4206977860249,
        "timestamp": "2025-12-27T10:28:59.070585+00:00",
        "meta_object_name": "FENGYUN 1C DEB",
        "meta_object_id": "1999-025ACY",
        "meta_epoch": "2025-12-26T21:04:29.078112",
        "meta_mean_motion": 14.38815392,
        "meta_eccentricity": 0.0124732,
        "meta_inclination": 99.0809,
        "meta_ra_of_asc_node": 22.4027,
        "meta_arg_of_pericenter": 247.7035,
        "meta_mean_anomaly": 237.4095,
        "meta_ephemeris_type": 0,
        "meta_classification_type": "U",
        "meta_norad_cat_id": 30385,
        "meta_element_set_no": 999,
        "meta_rev_at_epoch": 98972,
        "meta_bstar": 0.00032365,
        "meta_mean_motion_dot": 1.035e-05,
        "meta_mean_motion_ddot": 0,
        "tle_line1": "1 30385U 99025ACY 25360.87811433  .00001035  00000+0  32365-3 0  9995",
        "tle_line2": "2 30385  99.0809  22.4027 0124732 247.7035 237.4095 14.38815392989729"
      },
      "geometry": {
        "type": "Point",
        "coordinates": [
          -148.34161636373526,
          43.28763955701174
        ]
      }
    },
    {
      "type": "Feature",
      "properties": {
        "norad_id": 30386,
        "name": "FENGYUN 1C DEB",
        "group": "fengyun-1c-debris",
        "lat": 33.63174354669364,
        "lon": 80.84071294695099,
        "alt_km": 848.7961631826793,
        "timestamp": "2025-12-27T10:28:59.070595+00:00",
        "meta_object_name": "FENGYUN 1C DEB",
        "meta_object_id": "1999-025ACZ",
        "meta_epoch": "2025-12-24T16:24:06.770016",
        "meta_mean_motion": 13.55610958,
        "meta_eccentricity": 0.03043556,
        "meta_inclination": 98.6909,
        "meta_ra_of_asc_node": 252.5703,
        "meta_arg_of_pericenter": 124.6608,
        "meta_mean_anomaly": 269.5784,
        "meta_ephemeris_type": 0,
        "meta_classification_type": "U",
        "meta_norad_cat_id": 30386,
        "meta_element_set_no": 999,
        "meta_rev_at_epoch": 92991,
        "meta_bstar": 0.0019056002,
        "meta_mean_motion_dot": 1.75e-05,
        "meta_mean_motion_ddot": 0,
        "tle_line1": "1 30386U 99025ACZ 25358.68341169  .00001750  00000+0  19056-2 0  9991",
        "tle_line2": "2 30386  98.6909 252.5703 0304355 124.6608 269.5784 13.55610958929918"
      },
      "geometry": {
        "type": "Point",
        "coordinates": [
          80.84071294695099,
          33.63174354669364
        ]
      }
    },
    {
      "type": "Feature",
      "properties": {
        "norad_id": 30387,
        "name": "FENGYUN 1C DEB",
        "group": "fengyun-1c-debris",
        "lat": 32.50702018305621,
        "lon": -158.36127087783615,
        "alt_km": 839.653045850424,
        "timestamp": "2025-12-27T10:28:59.070605+00:00",
        "meta_object_name": "FENGYUN 1C DEB",
        "meta_object_id": "1999-025ADA",
        "meta_epoch": "2025-12-26T19:22:16.538304",
        "meta_mean_motion": 14.1506669,
        "meta_eccentricity": 0.00011532,
        "meta_inclination": 98.6561,
        "meta_ra_of_asc_node": 15.4572,
        "meta_arg_of_pericenter": 90.665,
        "meta_mean_anomaly": 90.4688,
        "meta_ephemeris_type": 0,
        "meta_classification_type": "U",
        "meta_norad_cat_id": 30387,
        "meta_element_set_no": 999,
        "meta_rev_at_epoch": 97523,
        "meta_bstar": 0.00026084715,
        "meta_mean_motion_dot": 4.63e-06,
        "meta_mean_motion_ddot": 0,
        "tle_line1": "1 30387U 99025ADA 25360.80713586  .00000463  00000+0  26085-3 0  9996",
        "tle_line2": "2 30387  98.6561  15.4572 0001153  90.6650  90.4688 14.15066690975237"
      },
      "geometry": {
        "type": "Point",
        "coordinates": [
          -158.36127087783615,
          32.50702018305621
        ]
      }
    },
    {
      "type": "Feature",
      "properties": {
        "norad_id": 30388,
        "name": "FENGYUN 1C DEB",
        "group": "fengyun-1c-debris",
        "lat": -51.037726773189014,
        "lon": 32.47771850467157,
        "alt_km": 780.8831381208465,
        "timestamp": "2025-12-27T10:28:59.070615+00:00",
        "meta_object_name": "FENGYUN 1C DEB",
        "meta_object_id": "1999-025ADB",
        "meta_epoch": "2025-12-27T00:48:52.549920",
        "meta_mean_motion": 14.19805059,
        "meta_eccentricity": 0.0221477,
        "meta_inclination": 98.5984,
        "meta_ra_of_asc_node": 21.3027,
        "meta_arg_of_pericenter": 21.5726,
        "meta_mean_anomaly": 31.1199,
        "meta_ephemeris_type": 0,
        "meta_classification_type": "U",
        "meta_norad_cat_id": 30388,
        "meta_element_set_no": 999,
        "meta_rev_at_epoch": 97635,
        "meta_bstar": 0.00054793,
        "meta_mean_motion_dot": 1.439e-05,
        "meta_mean_motion_ddot": 0,
        "tle_line1": "1 30388U 99025ADB 25361.03394155  .00001439  00000+0  54793-3 0  9991",
        "tle_line2": "2 30388  98.5984  21.3027 0221477  21.5726  31.1199 14.19805059976354"
      },
      "geometry": {
        "type": "Point",
        "coordinates": [
          32.47771850467157,
          -51.037726773189014
        ]
      }
    }
  ]
}